EVENT_NAME: 201011142308
EVENT_ID: 3336
EVENT_DATE_YYYYMMDD: 2010/11/14
EVENT_TIME_HHMMSS: 23:08:25.75
EVENT_LATITUDE_DEGREE: 36.6053
EVENT_LONGITUDE_DEGREE: 35.987
EVENT_DEPTH_KM: 24.17
HYPOCENTER_REFERENCE: AFAD
MAGNITUDE_W: 
MAGNITUDE_W_REFERENCE: 
MAGNITUDE_L: 5.1
MAGNITUDE_L_REFERENCE: AFAD
FOCAL_MECHANISM: 
NETWORK: TK
STATION_CODE: 3104
STATION_NAME: 
STATION_LATITUDE_DEGREE: 36.69293
STATION_LONGITUDE_DEGREE: 36.48852
STATION_ELEVATION_M: 260.0
LOCATION: HATAY_HASSA_AKTEPE_SALYK_OCAY_BAHCESI
SENSOR_DEPTH_M: 
VS30_M/S: 688
SITE_CLASSIFICATION_EC8: B
MORPHOLOGIC_CLASSIFICATION: 
EPICENTRAL_DISTANCE_KM: 45.79
EARTHQUAKE_BACKAZIMUTH_DEGREE: 
DATE_TIME_FIRST_SAMPLE_YYYYMMDD_HHMMSS: 14/11/2010 23:09:19.300
DATE_TIME_FIRST_SAMPLE_PRECISION: millisecond
SAMPLING_INTERVAL_S: 0.01
NDATA: 5600
DURATION_S: 
STREAM: HNE
UNITS: cm/s^2
INSTRUMENT: sensor = Kinemetrics etna | digitizer = 
INSTRUMENT_ANALOG/DIGITAL: 
INSTRUMENTAL_FREQUENCY_HZ: 
INSTRUMENTAL_DAMPING: 
FULL_SCALE_G: 
N_BIT_DIGITAL_CONVERTER: 
PGA_CM/S^2: 1.632
TIME_PGA_S: 
BASELINE_CORRECTION: BASELINE REMOVED
FILTER_TYPE: BUTTERWORTH
FILTER_ORDER: 
LOW_CUT_FREQUENCY_HZ: 
HIGH_CUT_FREQUENCY_HZ: 
LATE/NORMAL_TRIGGERED: 
DATABASE_VERSION: 
HEADER_FORMAT: DYNA 1.2
DATA_TYPE: Acceleration
PROCESSING: Automatic Paolucci et al., 2011
DATA_TIMESTAMP_YYYYMMDD_HHMMSS: 
DATA_LICENSE: U (unknown license)
DATA_CITATION: Turkish Accelerometric Archive v 1.0 - Disaster And Emergency Management Presidency, Earthquake Department
DATA_CREATOR: AFAD
ORIGINAL_DATA_MEDIATOR_CITATION: : AFAD - Disaster And Emergency Management Presidency
ORIGINAL_DATA_MEDIATOR: AFAD PROCESS SERVICE
ORIGINAL_DATA_CREATOR_CITATION: AFAD PROCESS SERVICE
ORIGINAL_DATA_CREATOR: network: TK
USER1: GuestUser
USER2: 
USER3: 
USER4: 
USER5: 
[...]
0.002146
-0.003099
-0.005007
-0.006914
-0.002146
0.002623
0.006437
0.008821
0.006437
0.004530
0.008345
0.004530
0.003576
0.005960
-0.007391
0.004530
0.007868
0.000715
0.002146
-0.001192
0.006914
0.001669
-0.000715
0.000238
-0.000715
0.003099
-0.000715
-0.005007
-0.003099
0.002146
0.007868
0.008821
-0.009775
-0.006914
0.001669
0.001192
-0.003576
-0.013590
0.014067
0.018358
0.001669
0.002146
-0.002623
-0.005960
0.000715
0.005484
0.002623
0.005484
0.005960
0.001669
0.002146
-0.002146
-0.005484
0.003099
-0.003099
-0.005007
-0.004053
-0.007391
0.005484
0.005484
0.004053
-0.004053
-0.007391
0.003099
0.002146
0.003099
0.004530
-0.003576
-0.000715
0.005007
-0.003576
-0.002623
-0.001669
0.001669
-0.001192
-0.001669
0.004530
0.002146
-0.000238
-0.002146
0.011683
0.006914
-0.002146
0.000238
0.000238
0.000238
-0.001192
0.004530
0.001669
-0.002623
-0.005007
0.005007
0.004053
-0.001669
0.004530
0.004053
0.007391
0.003099
-0.001669
0.000238
0.002146
0.004530
0.008821
0.009298
-0.000715
-0.005007
-0.001192
-0.005960
-0.005007
0.004053
-0.000715
0.002623
-0.000715
0.001669
0.007391
-0.002623
0.009775
0.003099
-0.006437
0.006914
0.006437
0.009298
0.000238
-0.006914
-0.000238
-0.000238
0.001192
0.006437
0.005484
0.002146
0.010252
0.005484
0.002623
0.001669
-0.004530
0.006437
0.000715
-0.003099
0.004530
0.003576
0.002623
0.001192
0.005960
-0.000238
-0.005007
0.000715
-0.002146
0.004530
0.004530
0.002146
0.003576
0.002146
0.002146
-0.005007
0.010729
0.009775
-0.013113
0.004530
0.004053
-0.006914
0.006914
0.000715
-0.012159
-0.004530
0.003576
-0.006914
-0.011206
-0.006437
0.005960
0.007868
-0.002623
0.005484
0.005484
0.000715
0.002146
0.010252
0.008821
-0.001669
-0.006914
-0.024080
-0.024557
-0.013590
0.004530
0.011683
0.005960
0.012636
-0.003099
-0.004530
-0.000238
-0.004053
0.004530
0.004530
0.009775
-0.002623
-0.015020
-0.004053
0.006437
0.020266
0.005007
-0.018358
-0.024557
-0.033140
0.001669
0.044584
0.066519
0.059843
0.018358
-0.001669
-0.020742
-0.020266
-0.012636
-0.017881
0.003576
0.029325
0.040293
0.015020
-0.039339
-0.094175
-0.125170
-0.088453
-0.016928
0.034094
0.066519
0.080824
0.097036
0.084162
0.071764
0.072718
0.056982
0.084639
0.077486
0.054598
0.046492
-0.025034
-0.087976
-0.144243
-0.161886
-0.132322
-0.101805
-0.035048
0.028849
0.108480
0.123262
0.017881
-0.037909
-0.008345
0.051260
0.124693
0.133276
0.036001
-0.063658
-0.136137
-0.097990
0.004530
0.026941
0.019789
-0.051260
-0.049829
0.010252
0.009775
0.009298
-0.024557
-0.072241
-0.072241
0.023127
0.033140
-0.012159
-0.027895
-0.052214
-0.016928
0.015020
0.050306
0.017405
0.004053
0.080347
0.098467
0.046968
-0.010252
-0.142336
-0.229597
-0.152349
-0.094175
0.011206
0.078440
0.074148
0.087500
0.073195
0.020742
0.000715
0.050783
0.083685
0.147581
0.084162
0.044107
0.061274
0.008821
0.065088
0.018358
-0.067949
-0.100374
-0.094652
0.041723
0.067949
-0.088453
-0.249624
-0.308752
-0.188112
0.021696
0.178099
0.245810
0.160456
0.046492
0.072241
0.170469
0.198126
0.097036
0.018358
0.026941
0.089407
0.192881
0.128031
-0.068903
-0.248194
-0.350237
-0.295401
-0.130415
-0.052214
-0.117064
-0.103712
-0.143290
-0.145197
-0.092268
-0.043154
0.095129
0.178576
0.336409
0.400782
0.355482
0.201464
0.025034
-0.005484
-0.046968
-0.049829
-0.154734
-0.225782
-0.221014
-0.184774
-0.051260
0.015497
0.028849
-0.025034
0.014067
0.132799
0.233889
0.327349
0.221968
0.056505
-0.093699
-0.176668
-0.099421
-0.032187
0.031233
0.032663
-0.005484
0.057459
0.090361
0.148058
0.221491
0.150919
0.102282
0.000715
-0.208139
-0.272989
-0.268221
-0.252962
-0.046015
0.096083
0.040293
-0.051737
-0.153780
-0.140429
-0.128031
-0.112772
-0.088930
-0.079393
0.007391
0.097036
0.090837
0.092745
0.064611
0.005484
0.104666
0.041246
-0.000238
-0.035048
-0.155210
-0.121832
-0.179529
-0.111818
0.021696
0.117540
0.225782
0.214815
0.127077
-0.097036
-0.232458
-0.137568
0.012636
0.111341
0.098944
0.014067
-0.075579
-0.052691
0.014544
0.036001
0.059843
-0.044584
-0.048399
0.073195
0.120401
0.146627
0.095606
0.102282
0.139475
0.095129
0.023127
-0.112295
-0.231028
-0.221968
-0.096083
0.092268
0.144243
0.104189
0.025034
-0.085115
-0.127554
-0.199080
-0.160456
-0.122786
-0.070810
0.039816
-0.014067
0.011206
0.021219
0.005484
0.028849
-0.078917
-0.073671
-0.009775
0.016451
0.002623
-0.082731
0.028372
0.071764
0.092268
0.134706
-0.136137
-0.160933
-0.124693
-0.099897
0.065088
0.000715
0.003576
0.010729
0.091791
0.206709
0.170946
0.087023
-0.021219
-0.087023
-0.053167
0.073195
0.029802
-0.010729
-0.009298
-0.023603
-0.012636
-0.067472
-0.200033
-0.263929
-0.141382
-0.047922
0.048876
0.002623
-0.180483
-0.301600
-0.283480
-0.022650
0.112772
0.108957
0.132799
0.086546
0.099421
0.171423
0.168085
0.176668
0.251055
0.143766
0.070810
0.076532
-0.061274
-0.103235
-0.152826
-0.137568
-0.144720
-0.138998
0.012636
-0.045538
-0.055075
-0.047922
-0.151396
-0.175238
-0.158548
-0.123739
-0.085115
-0.009298
-0.113249
-0.211954
-0.184298
-0.167131
-0.032187
0.073671
0.237226
0.337839
0.386477
0.422716
0.249624
0.151873
0.067472
-0.032187
0.063181
0.108004
0.009775
-0.028372
-0.195265
-0.357866
-0.158072
0.029802
0.075102
0.101805
-0.039816
-0.181437
-0.256300
-0.181913
0.069857
0.160933
0.119925
-0.036478
-0.195742
-0.131845
-0.019312
-0.007391
0.086546
0.138521
0.065565
0.050306
-0.028849
0.019312
0.154257
0.214815
0.275373
0.179529
-0.011206
-0.137091
-0.236750
-0.343084
-0.432730
-0.453711
-0.308275
-0.137091
-0.056505
-0.114679
-0.158072
-0.067472
-0.060797
0.083208
0.171423
0.185728
0.249147
0.237703
0.373602
0.313997
0.184298
-0.001669
-0.126123
-0.026464
0.097513
0.138998
-0.222445
-0.446558
-0.407457
-0.107050
0.265837
0.288248
0.150919
-0.201464
-0.331163
-0.146151
0.001192
0.144720
0.138998
0.113249
0.099897
0.154257
0.259161
0.154734
0.032187
-0.107527
-0.141382
-0.022173
0.184298
0.254393
0.194311
0.120401
-0.081301
-0.048876
-0.045061
-0.053167
-0.089407
-0.211954
-0.128984
-0.096083
0.011683
0.097990
0.026464
-0.037909
-0.010729
0.156164
0.241995
0.317812
0.329256
0.192881
0.294924
0.443697
0.330210
0.126600
-0.087500
-0.232935
-0.219107
-0.089884
-0.084639
-0.297308
-0.448942
-0.414133
-0.193357
0.071764
0.253439
0.298738
0.209570
0.269175
0.283003
0.214815
0.264406
0.168085
-0.010729
0.010729
0.123262
0.184774
0.097513
-0.160456
-0.224352
-0.308752
-0.312090
-0.108957
-0.244856
-0.338793
-0.359297
-0.293970
-0.075102
0.019312
0.203371
0.187159
0.088930
0.169992
0.110865
-0.036478
-0.104666
-0.093222
0.066042
0.329256
0.378370
0.248671
0.082731
-0.097513
-0.093699
-0.132322
-0.380754
-0.624895
-0.691175
-0.550508
-0.382662
-0.209570
-0.169039
-0.224352
-0.173807
-0.058413
0.029802
0.181437
0.222445
0.103235
0.061274
-0.003576
-0.055075
-0.202417
-0.081778
0.063181
-0.045538
-0.182390
-0.522852
-0.681162
-0.717878
-0.441790
-0.160456
-0.128984
0.070810
0.131845
0.325441
0.502348
0.528574
0.574350
0.399828
0.251055
0.192881
0.070333
-0.060797
-0.162363
-0.281096
-0.428438
-0.534773
-0.582457
-0.692129
-0.667810
-0.506163
-0.407934
-0.232935
-0.106096
0.011683
0.182390
0.251532
0.189543
0.202894
0.530958
0.727415
0.593901
0.309706
-0.064135
-0.249147
-0.313044
-0.228643
-0.131845
-0.199556
-0.078917
0.069380
0.302553
0.653028
0.674009
0.550985
0.427008
0.342131
0.377417
0.274897
0.160933
0.131369
0.036001
0.145674
0.275850
0.152349
0.158072
0.032663
-0.349283
-0.554800
-0.485659
-0.194788
0.008345
0.201941
0.386000
0.488997
0.405073
0.025988
-0.184298
-0.401258
-0.461340
-0.369310
-0.529051
-0.424623
-0.344515
-0.396013
-0.127554
0.074148
0.267267
0.386477
0.379324
0.402689
0.065088
-0.187159
-0.218153
-0.247240
-0.046492
0.118017
0.106573
0.090361
0.038862
0.021219
0.089884
0.086546
0.045061
-0.042677
-0.112772
-0.149488
-0.107050
-0.042200
-0.016928
-0.184774
-0.546694
-0.807524
-0.936747
-0.598669
-0.057459
0.292063
0.519991
0.587702
0.393629
0.216246
0.079870
-0.236273
-0.394106
-0.548124
-0.475168
-0.131369
0.133753
0.366449
0.553370
0.705957
0.798941
0.844240
0.788450
0.692606
0.486612
0.236750
-0.283003
-0.597239
-0.259161
0.051260
0.360727
0.400782
0.259638
0.108004
0.029325
0.136614
0.004530
0.090361
0.353098
0.553370
0.539064
0.390291
0.059843
-0.566721
-0.586748
-0.549078
-0.573874
-0.475645
-0.653982
-0.780821
-0.986338
-0.850916
-0.434160
-0.352621
-0.434637
-0.479937
-0.454664
-0.233412
0.060797
0.108480
0.224829
0.627756
0.815153
0.643969
0.264406
-0.221968
-0.427008
-0.528574
-0.413656
-0.190973
-0.281572
-0.292063
-0.267744
0.027418
0.404119
0.372171
0.353098
0.631571
0.870943
1.113176
1.198530
0.824213
0.646353
0.393152
0.211477
0.114679
-0.115156
-0.289202
-0.651121
-0.450373
-0.057936
0.117540
0.295877
0.494719
0.751257
0.871420
1.002550
0.536203
-0.163317
-0.769854
-1.228571
-0.931501
-0.504732
0.005484
0.248671
0.039816
0.013113
0.155210
0.160456
-0.057936
-0.017405
0.017881
0.036001
0.154257
0.183344
0.163794
0.129461
0.347376
0.526667
0.577211
0.672579
0.681162
0.579119
0.572443
0.423670
0.193357
0.134706
-0.133276
-0.342607
-0.462294
-0.718355
-0.731707
-0.425100
-0.161886
0.083208
0.168085
-0.102758
-0.331640
-0.291109
0.111818
0.424147
0.512362
0.492811
0.133276
-0.126600
-0.007391
0.009775
-0.272036
-0.507593
-0.617743
-0.604391
-0.550985
-0.548601
-0.483751
-0.475645
-0.530481
-0.444651
-0.293016
-0.205278
-0.100374
-0.064611
-0.101805
0.138998
0.305891
0.251055
0.403643
0.508070
0.701189
0.875235
1.009703
1.112700
0.805616
0.554323
0.318289
0.333071
0.556707
0.720739
0.718832
0.457525
0.389338
0.202417
0.343084
0.405550
0.137091
0.007391
-0.259161
0.031710
0.254393
0.157595
0.179052
0.123262
0.168085
0.003099
-0.281096
-0.525713
-0.675917
-0.726938
-0.825644
-0.877142
-1.009703
-1.205683
-1.128435
-0.849962
-0.605822
-0.357389
-0.227213
-0.024557
0.100851
-0.039816
-0.356436
-0.942469
-1.165152
-1.069784
-0.738859
-0.336885
-0.363588
-0.354528
-0.422716
-0.357389
-0.140905
0.039816
0.314474
0.294447
0.340223
0.545263
0.628233
0.384092
-0.053644
-0.473261
-0.910997
-1.070738
-0.955820
-0.832319
-0.842333
-0.774622
-0.651121
-0.372648
0.121832
0.548124
0.848055
1.003504
1.027822
0.948668
0.993967
0.919104
0.722170
0.335932
-0.187635
-0.324011
-0.440836
-0.316858
0.041723
0.199556
0.280142
0.313520
0.458956
0.709295
0.762701
0.700712
0.602484
0.221014
-0.037909
-0.196218
-0.397921
-0.262976
-0.097513
-0.105619
0.018358
0.270128
0.373125
0.356913
0.270605
0.154734
0.030279
-0.084639
-0.129461
-0.304937
-0.541925
-0.732183
-0.894308
-0.811338
-0.684977
-0.645876
-0.360727
-0.029325
0.088930
-0.065565
-0.182390
-0.040770
-0.049829
0.117540
0.375032
0.173807
-0.156164
-0.468016
-0.668287
-0.684977
-0.573874
-0.400305
-0.295877
-0.124693
-0.048399
-0.027895
0.102758
0.137091
0.040770
-0.098944
-0.191450
-0.230551
-0.098944
0.216246
0.594854
0.827551
0.731230
0.482321
0.336885
0.396490
0.339270
-0.167131
-0.798464
-1.104116
-0.905752
-0.120401
0.701666
1.030207
0.924826
0.591993
0.334501
0.280619
0.494719
0.737906
0.808001
0.707865
0.485182
0.394106
0.237703
0.066519
-0.084639
-0.269175
-0.305891
-0.457048
-0.469446
-0.340700
-0.305414
-0.165701
-0.032187
0.026464
-0.036001
-0.125170
-0.071287
-0.105619
-0.134230
0.082731
0.268221
0.518084
0.669241
0.422716
0.219584
0.183344
0.257254
0.528097
0.659227
0.448942
0.105619
-0.229120
-0.400305
-0.412226
-0.350714
-0.333548
-0.383615
-0.436068
-0.365973
-0.150919
0.037432
0.276804
0.449896
0.484705
0.455618
0.313997
0.190496
0.110388
-0.014067
-0.000715
0.054121
-0.001669
-0.116587
-0.378847
-0.505209
-0.480890
-0.451326
-0.235319
-0.081301
-0.048399
0.030756
0.072718
0.165224
0.279665
0.359774
0.251532
-0.046968
-0.087976
0.059843
0.231028
0.376940
0.184298
-0.164747
-0.374556
-0.450850
-0.356436
-0.264883
-0.257254
-0.399828
-0.618219
-0.689268
-0.667334
-0.533342
-0.313044
0.077486
0.471354
0.573874
0.524282
0.337839
0.092745
0.037909
0.078917
0.120401
0.207663
0.120401
0.099421
0.102282
-0.136137
-0.383615
-0.738859
-0.894308
-0.857592
-0.687361
-0.375032
-0.269651
-0.124216
-0.151873
-0.291109
-0.228167
-0.096083
0.083208
0.273943
0.605345
0.818014
0.814199
0.628710
0.172377
-0.111341
-0.216246
-0.290155
-0.249147
-0.260115
-0.283480
-0.325918
-0.342131
-0.177622
0.183344
0.681162
0.992537
1.063108
0.857592
0.493288
0.212908
-0.137568
-0.534296
-0.830889
-0.906706
-0.692129
-0.331163
-0.367880
-0.638723
-0.615835
-0.416517
-0.061274
0.275850
0.349283
0.119448
-0.061274
-0.037432
0.018358
0.244379
0.295401
0.123262
0.241041
0.542402
0.911951
1.153231
1.190424
1.154184
0.892878
0.650167
0.353098
-0.121832
-0.524282
-0.704527
-0.652075
-0.659704
-0.673056
-0.642061
-0.598669
-0.427485
-0.361204
-0.318289
-0.204802
-0.042200
0.293016
0.540018
0.741720
0.743151
0.564814
0.443220
0.200510
-0.033617
-0.344515
-0.549078
-0.443697
-0.097036
0.252485
0.277281
-0.104666
-0.643492
-0.967741
-1.101255
-0.915289
-0.639200
-0.198126
0.521421
1.100779
1.498938
1.631975
1.471281
1.203775
0.979662
0.731230
0.388384
-0.112295
-0.663996
-1.010180
-1.065016
-0.855207
-0.432253
-0.015020
0.215769
0.351191
0.451326
0.472307
0.352144
0.241995
0.291586
0.396967
0.445127
0.422716
0.233412
-0.065088
-0.376463
-0.608206
-0.838995
-1.026869
-1.020670
-1.081228
-1.050234
-0.956297
-0.879049
-0.694513
-0.406027
-0.106573
0.031233
0.288248
0.663519
0.981092
1.216173
1.159906
0.785589
0.406027
0.162363
0.070333
0.179529
0.256300
0.309706
0.413656
0.534296
0.702143
0.723600
0.481844
0.122786
-0.020266
0.035048
0.006437
-0.109911
-0.299692
-0.396967
-0.283480
-0.085592
-0.010252
-0.213861
-0.315428
-0.183821
0.022650
0.281572
0.262022
0.059366
-0.042677
0.056028
0.302553
0.375986
0.221968
-0.011683
-0.145674
-0.105619
0.039339
0.122786
0.073671
0.032187
0.006914
-0.005960
-0.103712
-0.382662
-0.653982
-0.822306
-0.740767
-0.438929
-0.222921
-0.149012
-0.187159
-0.255823
-0.363111
-0.496149
-0.445127
-0.241518
0.005484
0.230074
0.142336
-0.202417
-0.488520
-0.556231
-0.296831
0.041246
0.319242
0.473261
0.346899
0.056505
-0.283480
-0.499964
-0.491858
-0.303030
-0.010252
0.257254
0.462294
0.597239
0.641584
0.602007
0.521898
0.489473
0.536680
0.574350
0.595331
0.514746
0.324011
0.242949
0.262022
0.421762
0.634432
0.772238
0.814676
0.538588
0.168562
-0.121355
-0.409842
-0.550985
-0.438452
-0.275850
-0.271559
-0.346422
-0.581980
-0.786543
-0.753164
-0.569582
-0.315428
-0.108004
0.098944
0.269651
0.424147
0.436544
0.233889
0.063181
0.046015
0.181437
0.390768
0.558138
0.458956
0.218153
-0.004530
-0.237703
-0.437498
-0.700235
-0.926733
-1.075029
-1.104593
-1.034498
-0.907660
-0.605345
-0.274897
0.066519
0.375509
0.506163
0.459909
0.319719
0.291586
0.376940
0.428915
0.408888
0.408411
0.526667
0.667334
0.743151
0.660181
0.257730
-0.210047
-0.496626
-0.665426
-0.744104
-0.808477
-0.832319
-0.841856
-0.789404
-0.515699
-0.173330
0.136137
0.391722
0.517130
0.512362
0.418425
0.301600
0.111341
-0.130892
-0.471830
-0.949144
-1.311541
-1.445532
-1.363993
-1.156092
-0.895262
-0.735521
-0.716925
-0.631571
-0.494719
-0.269175
0.046968
0.228167
0.233889
0.202894
0.108957
-0.020742
-0.067472
-0.023127
0.139952
0.299692
0.350237
0.322104
0.342131
0.422716
0.487566
0.570059
0.530481
0.350714
0.074148
-0.281572
-0.457048
-0.395536
-0.256777
-0.016928
0.231981
0.353575
0.428915
0.458956
0.545740
0.734091
0.852346
0.845671
0.761747
0.628710
0.502825
0.397444
0.340700
0.303507
0.151396
-0.016451
-0.222445
-0.489950
-0.653982
-0.674009
-0.588179
-0.474215
-0.249624
-0.059366
-0.078917
-0.130415
-0.135660
-0.074148
0.023127
0.144243
0.246286
0.294924
0.352621
0.394583
0.306845
0.109911
-0.146627
-0.414133
-0.509024
-0.515223
-0.430822
-0.302076
-0.170946
-0.020266
-0.006914
-0.002146
-0.038385
-0.117540
-0.161886
-0.136137
-0.103235
-0.213861
-0.360250
-0.521421
-0.707388
-0.843287
-0.834703
-0.726461
-0.585794
-0.419378
-0.283003
-0.152349
0.051260
0.281572
0.458479
0.616312
0.655890
0.614405
0.567198
0.547171
0.582933
0.484705
0.229597
-0.138521
-0.438452
-0.510931
-0.468493
-0.311136
-0.157595
-0.063658
0.048876
0.177145
0.340223
0.477076
0.628233
0.772238
0.851393
0.875711
0.788927
0.619650
0.404596
0.245333
0.099897
-0.075579
-0.144720
-0.201464
-0.241041
-0.149965
-0.015974
0.159502
0.264883
0.259638
0.364542
0.482321
0.513315
0.471354
0.435114
0.535250
0.664473
0.803709
0.835180
0.650167
0.400305
0.212908
0.177622
0.173330
0.145197
0.213861
0.318766
0.418901
0.495195
0.397444
0.091314
-0.313997
-0.623941
-0.709295
-0.646830
-0.591516
-0.610113
-0.562906
-0.371695
-0.085115
0.204802
0.385523
0.368834
0.257254
0.204802
0.123262
0.020266
-0.088453
-0.155210
-0.173807
-0.190973
-0.119925
-0.098944
-0.208139
-0.314951
-0.403643
-0.496626
-0.519037
-0.524759
-0.552893
-0.519514
-0.445604
-0.311613
-0.169516
-0.135183
-0.173330
-0.180960
-0.174761
-0.168562
-0.152349
-0.213861
-0.336409
-0.426054
-0.331640
-0.071764
0.084639
0.110865
0.088453
0.043154
0.093222
0.213385
0.350714
0.458002
0.480413
0.506163
0.592947
0.715017
0.733614
0.705481
0.701666
0.697851
0.708818
0.693083
0.598669
0.315428
-0.016451
-0.313520
-0.506163
-0.429392
-0.217199
0.101328
0.424147
0.489473
0.316858
0.002623
-0.278234
-0.413656
-0.480413
-0.510454
-0.581980
-0.670195
-0.719309
-0.674486
-0.543356
-0.400782
-0.184298
0.044584
0.284910
0.504732
0.561476
0.474691
0.257254
0.000238
-0.136614
-0.115633
-0.025988
0.021696
-0.016928
-0.120401
-0.230551
-0.316381
-0.417471
-0.574350
-0.717878
-0.790834
-0.748873
-0.591516
-0.394583
-0.179529
-0.044107
-0.027418
-0.006437
0.023127
-0.004530
-0.017405
0.038862
0.090361
0.161886
0.195742
0.104189
0.020266
-0.049353
-0.065088
-0.006914
-0.026941
-0.125647
-0.253439
-0.410795
-0.560999
-0.706911
-0.838518
-0.873804
-0.832319
-0.694513
-0.468016
-0.243902
-0.092745
0.056028
0.305414
0.492334
0.519991
0.397444
0.211954
0.056505
-0.011683
0.049353
0.094652
0.047922
-0.049829
-0.131845
-0.161886
-0.210524
-0.225782
-0.126123
0.005960
0.187635
0.413179
0.588655
0.692129
0.708342
0.742674
0.742674
0.689268
0.712633
0.735044
0.779867
0.792742
0.655413
0.394106
0.105143
-0.075579
-0.101328
-0.012159
0.072241
0.089884
0.040770
0.038385
0.069380
0.007868
-0.054598
-0.085115
-0.109911
-0.094175
-0.043154
0.041723
0.092745
0.045538
-0.009298
-0.097990
-0.185251
-0.203371
-0.293970
-0.401735
-0.575781
-0.790358
-0.874281
-0.895262
-0.852823
-0.838995
-0.782251
-0.562906
-0.268698
0.071764
0.291109
0.320196
0.272512
0.233412
0.224352
0.183344
0.101805
0.009298
-0.094175
